OBJECT_NAME,OBJECT_ID,EPOCH,MEAN_MOTION,ECCENTRICITY,INCLINATION,RA_OF_ASC_NODE,ARG_OF_PERICENTER,MEAN_ANOMALY,EPHEMERIS_TYPE,CLASSIFICATION_TYPE,NORAD_CAT_ID,ELEMENT_SET_NO,REV_AT_EPOCH,BSTAR,MEAN_MOTION_DOT,MEAN_MOTION_DDOT
SAUDISAT 5A,2018-102A,2026-07-16T04:07:38.523360,15.28326342,.0010354,97.3051,258.1969,40.7043,319.4968,0,U,43831,999,42010,.10275E-3,.2765E-4,0
SAUDISAT 5B,2018-102C,2026-07-16T04:27:58.003200,15.28569310,.001113,97.3160,261.3330,42.0103,318.1988,0,U,43833,999,42022,.969E-4,.2623E-4,0
GAOFEN-10R,2019-066A,2026-07-16T03:58:52.921920,14.83058160,.0006834,98.0509,150.9581,50.4691,309.7125,0,U,44622,999,36667,.677E-4,.496E-5,0
CARTOSAT-3,2019-081A,2026-07-16T04:52:26.684832,15.19187779,.0012945,97.4293,258.6006,55.7259,304.5199,0,U,44804,999,36787,.73689E-4,.1485E-4,0
GAOFEN-12 01,2019-082A,2026-07-16T05:02:13.548192,14.80479884,.0000917,97.8109,202.8244,55.6491,304.4808,0,U,44819,999,35838,.26207E-4,.15E-5,0
CSG-1,2019-092A,2026-07-16T05:10:55.258176,14.82157302,.0001471,97.8897,20.3992,91.1675,268.9707,0,U,44873,999,35577,.29853E-4,.185E-5,0
NEMO-HD,2020-061F,2026-07-16T03:32:45.189600,15.45150643,.0001004,97.1902,258.8167,100.0577,260.0786,0,U,46277,999,32645,.13328E-3,.6228E-4,0
SENTINEL-6A,2020-086A,2026-07-16T01:14:22.979040,12.80930198,.0007786,66.0412,75.1016,269.7329,90.2794,0,U,46984,999,26402,.10728E-3,-.36E-6,0
CAS500-1,2021-022A,2026-07-16T03:46:50.457216,15.20137102,.0005279,97.3864,91.8193,167.8147,192.3217,0,U,47932,999,29516,.14214E-3,.3006E-4,0
GAOFEN-12 02,2021-026A,2026-07-16T03:45:19.006272,14.80316460,.0005896,97.9935,195.2205,129.6502,230.5231,0,U,48079,999,28604,.25335E-4,.14E-5,0
PLEIADES NEO 3,2021-034A,2026-07-16T05:23:23.362944,14.81667597,.0001308,97.8944,271.5732,95.8024,264.3338,0,U,48268,999,28195,.17184E-4,.83E-6,0
PLEIADES NEO 4,2021-073E,2026-07-16T04:34:45.192576,14.81674191,.0001351,97.8943,271.5360,92.9489,267.1879,0,U,49070,999,26566,.71233E-4,.509E-5,0
LANDSAT 9,2021-088A,2026-07-16T04:12:20.558880,14.57095887,.0001127,98.2269,266.9999,88.8173,271.3154,0,U,49260,999,25522,.45115E-4,.158E-5,0
CSG-2,2022-008A,2026-07-16T04:22:16.851936,14.82148233,.0001499,97.8885,20.3595,86.6437,273.4948,0,U,51444,999,24088,-.42371E-4,-.389E-5,0
GAOFEN-12 03,2022-069A,2026-07-16T04:35:31.533216,14.80079110,.0002449,97.8245,84.3261,71.7304,288.4175,0,U,52912,999,21890,.15369E-3,.1114E-4,0
SWOT,2022-173A,2026-07-16T03:23:51.783648,14.00172424,.000024,77.6111,356.2203,74.2775,285.8403,0,U,54754,999,18320,-.50937E-5,-.1E-6,0
GAOFEN-12 04,2023-123A,2026-07-16T05:04:11.004672,14.79776219,.0003468,97.9100,114.7951,48.3754,311.7754,0,U,57654,999,15692,.63353E-4,.425E-5,0
PARS 1,2024-039Q,2026-07-16T04:21:18.460224,15.46302330,.000966,97.4840,179.0299,23.7336,336.4357,0,U,59065,999,13312,.12845E-3,.6245E-4,0
RESURS-P 4,2024-061A,2026-07-16T04:39:52.551936,15.32283052,.0003233,97.2760,144.5926,88.1358,272.0255,0,U,59371,999,12820,.52382E-4,.1557E-4,0
LEGION 1,2024-081A,2026-07-16T04:31:35.794272,15.16847132,.0007725,97.5011,274.7380,265.5539,94.4812,0,U,59625,999,12193,.95684E-4,.1816E-4,0
LEGION 2,2024-081B,2026-07-16T03:40:22.619712,15.16826377,.0010282,97.5011,274.7996,229.8878,130.1454,0,U,59626,999,12193,.98228E-4,.1865E-4,0
ALOS-4 (DAICHI-4),2024-123A,2026-07-16T05:46:32.548800,14.79471808,.0001563,97.9221,293.9996,95.9268,264.2122,0,U,60182,999,11017,.20747E-3,.1498E-4,0
LEGION 3,2024-146A,2026-07-16T03:03:32.499072,15.15658725,.0008127,45.0018,235.3915,339.0673,20.9871,0,U,60452,999,10641,.8692E-4,.1418E-4,0
LEGION 4,2024-146B,2026-07-15T20:43:31.210752,15.15684241,.0008969,45.0029,328.6733,117.8748,242.3040,0,U,60453,999,10522,.10165E-3,.1704E-4,0
SENTINEL-2C,2024-157A,2026-07-16T04:38:41.765280,14.30815820,.000097,98.5685,271.5637,103.9825,256.1465,0,U,60989,999,9713,.33946E-4,.45E-6,0
IONOSFERA-M 1,2024-199A,2026-07-16T04:01:57.047232,14.22759261,.0002146,98.7133,70.0292,71.6215,288.5196,0,U,61735,999,13182,.29125E-4,.21E-6,0
IONOSFERA-M 2,2024-199B,2026-07-16T03:09:58.089312,14.22762654,.0000534,98.7132,69.9038,126.3493,233.7734,0,U,61736,999,13494,.29139E-4,.21E-6,0
PRSC-EO1,2025-012A,2026-07-16T04:50:55.473216,15.17628496,.0006857,97.4215,269.0929,143.6236,216.5465,0,U,62725,999,8259,.18325E-3,.3621E-4,0
BIOMASS,2025-090A,2026-07-16T01:57:52.312608,14.67535437,.0001474,98.0750,23.9760,88.4310,271.7064,0,U,63772,999,6492,.51567E-4,.244E-5,0
GOSAT-GW (IBUKI GW),2025-141A,2026-07-16T04:00:52.097760,14.67554808,.0001439,98.0565,134.0135,85.1824,274.9545,0,U,64694,999,5609,.57683E-4,.279E-5,0
IONOSFERA-M 3,2025-155A,2026-07-16T04:12:47.144160,14.21490897,.000232,98.6041,158.3534,111.1352,249.0073,0,U,64876,999,5052,.19641E-4,0,0
