SAUDISAT 5A             
1 43831U 18102A   26197.17197365  .00002765  00000+0  10275-3 0  9992
2 43831  97.3051 258.1969 0010354  40.7043 319.4968 15.28326342420100
SAUDISAT 5B             
1 43833U 18102C   26197.18608800  .00002623  00000+0  96900-4 0  9999
2 43833  97.3160 261.3330 0011130  42.0103 318.1988 15.28569310420221
GAOFEN-10R              
1 44622U 19066A   26197.16589030  .00000496  00000+0  67700-4 0  9999
2 44622  98.0509 150.9581 0006834  50.4691 309.7125 14.83058160366677
CARTOSAT-3              
1 44804U 19081A   26197.20308663  .00001485  00000+0  73689-4 0  9996
2 44804  97.4293 258.6006 0012945  55.7259 304.5199 15.19187779367874
GAOFEN-12 01            
1 44819U 19082A   26197.20987903  .00000150  00000+0  26207-4 0  9995
2 44819  97.8109 202.8244 0000917  55.6491 304.4808 14.80479884358388
CSG-1                   
1 44873U 19092A   26197.21591734  .00000185  00000+0  29853-4 0  9998
2 44873  97.8897  20.3992 0001471  91.1675 268.9707 14.82157302355772
NEMO-HD                 
1 46277U 20061F   26197.14774525  .00006228  00000+0  13328-3 0  9992
2 46277  97.1902 258.8167 0001004 100.0577 260.0786 15.45150643326451
SENTINEL-6A             
1 46984U 20086A   26197.05165485 -.00000036  00000+0  10728-3 0  9996
2 46984  66.0412  75.1016 0007786 269.7329  90.2794 12.80930198264024
CAS500-1                
1 47932U 21022A   26197.15752844  .00003006  00000+0  14214-3 0  9996
2 47932  97.3864  91.8193 0005279 167.8147 192.3217 15.20137102295162
GAOFEN-12 02            
1 48079U 21026A   26197.15646998  .00000140  00000+0  25335-4 0  9998
2 48079  97.9935 195.2205 0005896 129.6502 230.5231 14.80316460286048
PLEIADES NEO 3          
1 48268U 21034A   26197.22457596  .00000083  00000+0  17184-4 0  9998
2 48268  97.8944 271.5732 0001308  95.8024 264.3338 14.81667597281956
PLEIADES NEO 4          
1 49070U 21073E   26197.19080084  .00000509  00000+0  71233-4 0  9991
2 49070  97.8943 271.5360 0001351  92.9489 267.1879 14.81674191265664
LANDSAT 9               
1 49260U 21088A   26197.17523795  .00000158  00000+0  45115-4 0  9997
2 49260  98.2269 266.9999 0001127  88.8173 271.3154 14.57095887255228
CSG-2                   
1 51444U 22008A   26197.18213949 -.00000389  00000+0 -42371-4 0  9994
2 51444  97.8885  20.3595 0001499  86.6437 273.4948 14.82148233240881
GAOFEN-12 03            
1 52912U 22069A   26197.19133719  .00001114  00000+0  15369-3 0  9990
2 52912  97.8245  84.3261 0002449  71.7304 288.4175 14.80079110218907
SWOT                    
1 54754U 22173A   26197.14157157 -.00000010  00000+0 -50937-5 0  9997
2 54754  77.6111 356.2203 0000240  74.2775 285.8403 14.00172424183208
GAOFEN-12 04            
1 57654U 23123A   26197.21123848  .00000425  00000+0  63353-4 0  9996
2 57654  97.9100 114.7951 0003468  48.3754 311.7754 14.79776219156929
PARS 1                  
1 59065U 24039Q   26197.18146366  .00006245  00000+0  12845-3 0  9992
2 59065  97.4840 179.0299 0009660  23.7336 336.4357 15.46302330133129
RESURS-P 4              
1 59371U 24061A   26197.19435824  .00001557  00000+0  52382-4 0  9990
2 59371  97.2760 144.5926 0003233  88.1358 272.0255 15.32283052128200
LEGION 1                
1 59625U 24081A   26197.18860873  .00001816  00000+0  95684-4 0  9999
2 59625  97.5011 274.7380 0007725 265.5539  94.4812 15.16847132121931
LEGION 2                
1 59626U 24081B   26197.15303958  .00001865  00000+0  98228-4 0  9994
2 59626  97.5011 274.7996 0010282 229.8878 130.1454 15.16826377121934
ALOS-4 (DAICHI-4)       
1 60182U 24123A   26197.24065450  .00001498  00000+0  20747-3 0  9994
2 60182  97.9221 293.9996 0001563  95.9268 264.2122 14.79471808110178
LEGION 3                
1 60452U 24146A   26197.12745948  .00001418  00000+0  86920-4 0  9991
2 60452  45.0018 235.3915 0008127 339.0673  20.9871 15.15658725106418
LEGION 4                
1 60453U 24146B   26196.86355568  .00001704  00000+0  10165-3 0  9992
2 60453  45.0029 328.6733 0008969 117.8748 242.3040 15.15684241105222
SENTINEL-2C             
1 60989U 24157A   26197.19353895  .00000045  00000+0  33946-4 0  9996
2 60989  98.5685 271.5637 0000970 103.9825 256.1465 14.30815820 97131
IONOSFERA-M 1           
1 61735U 24199A   26197.16802138  .00000021  00000+0  29125-4 0  9996
2 61735  98.7133  70.0292 0002146  71.6215 288.5196 14.22759261131823
IONOSFERA-M 2           
1 61736U 24199B   26197.13192233  .00000021  00000+0  29139-4 0  9997
2 61736  98.7132  69.9038 0000534 126.3493 233.7734 14.22762654134949
PRSC-EO1                
1 62725U 25012A   26197.20203094  .00003621  00000+0  18325-3 0  9990
2 62725  97.4215 269.0929 0006857 143.6236 216.5465 15.17628496 82592
BIOMASS                 
1 63772U 25090A   26197.08185547  .00000244  00000+0  51567-4 0  9991
2 63772  98.0750  23.9760 0001474  88.4310 271.7064 14.67535437 64926
GOSAT-GW (IBUKI GW)     
1 64694U 25141A   26197.16726965  .00000279  00000+0  57683-4 0  9999
2 64694  98.0565 134.0135 0001439  85.1824 274.9545 14.67554808 56090
IONOSFERA-M 3           
1 64876U 25155A   26197.17554565  .00000000  00000+0  19641-4 0  9996
2 64876  98.6041 158.3534 0002320 111.1352 249.0073 14.21490897 50523
